{"fetched_at": "2026-05-06T14:56:24.476778+00:00", "line1": "1 50321U 21129A   26124.71269108 -.00000227  00000+0  00000+0 0  9995", "line2": "2 50321   3.5630  80.4789 0003068 283.2080 211.5002  1.00060545 16061"}
{"fetched_at": "2026-05-08T01:13:34.275021+00:00", "line1": "1 50321U 21129A   26127.70678424 -.00000207  00000+0  00000+0 0  9990", "line2": "2 50321   3.5701  80.4389 0002966 283.5270 209.7621  1.00059306 16098"}
{"fetched_at": "2026-05-20T19:18:52.763835+00:00", "line1": "1 50321U 21129A   26139.46902102 -.00000126  00000+0  00000+0 0  9999", "line2": "2 50321   3.6020  80.2818 0003861 279.9018 130.0506  1.00037841 16214"}
{"fetched_at": "2026-05-22T01:06:16.911765+00:00", "line1": "1 50321U 21129A   26140.70407088 -.00000120  00000+0  00000+0 0  9995", "line2": "2 50321   3.6056  80.2654 0003856 280.8234 213.9407  1.00037728 16222"}
{"fetched_at": "2026-05-25T17:27:17.716886+00:00", "line1": "1 50321U 21129A   26144.45884933 -.00000087  00000+0  00000+0 0  9991", "line2": "2 50321   3.6157  80.2207 0003851 284.4923 122.5746  1.00037720 16265"}
